<?xml version="1.0" encoding="UTF-8"?>
<TrainingCenterDatabase xmlns="http://www.garmin.com/xmlschemas/TrainingCenterDatabase/v2" xmlns:ns3="http://www.garmin.com/xmlschemas/ActivityExtension/v2">
  <Activities>
    <Activity Sport="Running">
      <Id>2026-08-01T09:12:00.000Z</Id>
      <Lap StartTime="2026-08-01T09:12:00.000Z">
        <TotalTimeSeconds>1800.0</TotalTimeSeconds>
        <DistanceMeters>6000.0</DistanceMeters>
        <MaximumSpeed>4.1</MaximumSpeed>
        <Calories>310</Calories>
        <AverageHeartRateBpm>
          <Value>142</Value>
        </AverageHeartRateBpm>
        <MaximumHeartRateBpm>
          <Value>165</Value>
        </MaximumHeartRateBpm>
        <Intensity>Active</Intensity>
        <TriggerMethod>Manual</TriggerMethod>
        <Track>
          <Trackpoint>
            <Time>2026-08-01T09:12:00.000Z</Time>
            <Position>
              <LatitudeDegrees>48.856600</LatitudeDegrees>
              <LongitudeDegrees>2.352200</LongitudeDegrees>
            </Position>
            <DistanceMeters>0.0</DistanceMeters>
            <HeartRateBpm>
              <Value>119</Value>
            </HeartRateBpm>
          </Trackpoint>
          <Trackpoint>
            <Time>2026-08-01T09:27:00.000Z</Time>
            <Position>
              <LatitudeDegrees>48.866600</LatitudeDegrees>
              <LongitudeDegrees>2.352200</LongitudeDegrees>
            </Position>
            <DistanceMeters>3000.0</DistanceMeters>
            <HeartRateBpm>
              <Value>147</Value>
            </HeartRateBpm>
          </Trackpoint>
        </Track>
      </Lap>
      <Lap StartTime="2026-08-01T09:42:00.000Z">
        <TotalTimeSeconds>2880.0</TotalTimeSeconds>
        <DistanceMeters>9230.0</DistanceMeters>
        <MaximumSpeed>4.6</MaximumSpeed>
        <Calories>480</Calories>
        <AverageHeartRateBpm>
          <Value>154</Value>
        </AverageHeartRateBpm>
        <MaximumHeartRateBpm>
          <Value>178</Value>
        </MaximumHeartRateBpm>
        <Intensity>Active</Intensity>
        <TriggerMethod>Manual</TriggerMethod>
        <Track>
          <Trackpoint>
            <Time>2026-08-01T09:42:00.000Z</Time>
            <DistanceMeters>6000.0</DistanceMeters>
            <HeartRateBpm>
              <Value>151</Value>
            </HeartRateBpm>
            <Extensions>
              <ns3:TPX>
                <ns3:Speed>3.2</ns3:Speed>
              </ns3:TPX>
            </Extensions>
          </Trackpoint>
          <Trackpoint>
            <Time>2026-08-01T10:30:00.000Z</Time>
            <DistanceMeters>15230.0</DistanceMeters>
            <HeartRateBpm>
              <Value>158</Value>
            </HeartRateBpm>
          </Trackpoint>
        </Track>
      </Lap>
    </Activity>
  </Activities>
</TrainingCenterDatabase>
